ANIK F1                 
1 26624U 00076A   17300.19880721 -.00000078  00000-0  00000-0 0  9996
2 26624   0.0128 209.5926 0002793 307.1210 203.3330  1.00271905 11507
ASTRA 2D                
1 26638U 00081A   17300.92565812  .00000048  00000-0  00000+0 0  9994
2 26638   3.9036  69.4027 0001932 144.4050 215.6129  1.00270030 61768
AMC-8 (GE-8)            
1 26639U 00081B   17301.62689914  .00000102  00000-0  00000-0 0  9995
2 26639   0.0183  78.0426 0002416 142.5358 263.2816  1.00273467 61722
SKYNET 4F               
1 26695U 01005B   17301.17951576 -.00000245  00000-0  00000-0 0  9999
2 26695   9.0456  35.6882 0003035 169.7031 221.9709  1.00271360 61269
EUTELSAT 33C            
1 26719U 01011A   17301.37549183  .00000153  00000-0  00000+0 0  9998
2 26719   0.0716  27.3112 0003772 209.0206 328.8682  1.00274545 60950
INTELSAT 10 (IS-10)     
1 26766U 01019A   17301.20326933  .00000124  00000-0  00000-0 0  9995
2 26766   1.7914  84.4969 0002381 153.0060 279.9533  1.00274646 14014
INTELSAT 901 (IS-901)   
1 26824U 01024A   17301.23465638 -.00000143  00000-0  00000+0 0  9996
2 26824   0.0150 272.5859 0002702 300.5842 250.0991  1.00272036 59978
ASTRA 2C                
1 26853U 01025A   17301.59927347  .00000043  00000-0  00000-0 0  9997
2 26853   0.6776  91.1530 0003810 122.1309  99.9300  1.00274468 13434
ARTEMIS                 
1 26863U 01029A   17300.62376271 -.00000365  00000-0  00000+0 0  9996
2 26863  12.8634  31.7071 0002580 229.5049 122.4976  1.00267668 60762
INTELSAT 902 (IS-902)   
1 26900U 01039A   17301.59632674  .00000030  00000-0  00000-0 0  9997
2 26900   0.0136 269.0812 0002895 309.1799  95.5520  1.00271836 59096
EUTELSAT 12 WEST B      
1 26927U 01042A   17301.12271611 -.00000103  00000-0  00000-0 0  9991
2 26927   0.0700  44.2808 0005231 187.7734 196.3431  1.00271659 58886
DIRECTV 4S              
1 26985U 01052A   17301.53024469 -.00000116  00000-0  00000+0 0  9991
2 26985   0.0305 102.7338 0002788 109.0728 274.9848  1.00272119 58374
ECHOSTAR 7              
1 27378U 02006A   17301.54768154 -.00000003  00000-0  00000-0 0  9991
2 27378   0.0098 125.2741 0002074  42.2970 307.9250  1.00270888 19027
INTELSAT 904 (IS-904)   
1 27380U 02007A   17301.37063250  .00000133  00000-0  00000-0 0  9994
2 27380   0.0299 123.7536 0002651  86.1065   5.6210  1.00274148 20147
TDRS 9                  
1 27389U 02011A   17301.23449931 -.00000097  00000-0  00000+0 0  9996
2 27389   5.5184  77.4347 0019321 233.2437 158.5845  1.00271788 58818
JCSAT 2A                
1 27399U 02015A   17301.55952257 -.00000265  00000-0  00000-0 0  9994
2 27399   0.7574  91.7282 0003761 156.1752  88.6938  1.00112417 57278
ASTRA 3A                
1 27400U 02015B   17301.21767359 -.00000280  00000-0  00000+0 0  9993
2 27400   4.0638  68.1167 0002444 146.5133 213.5030  1.00275773 57099
INTELSAT 903 (IS-903)   
1 27403U 02016A   17301.23799366 -.00000226  00000-0  00000+0 0  9992
2 27403   0.1208  93.9603 0001777  69.1405 287.8868  1.00271738 57026
NSS-7                   
1 27414U 02019A   17301.18251823 -.00000157  00000-0  00000-0 0  9996
2 27414   2.1672  82.3011 0002374 141.0185 219.1379  1.00271706 56949
DIRECTV 5 (TEMPO 1)     
1 27426U 02023A   17301.20376579 -.00000059  00000-0  00000+0 0  9993
2 27426   0.0211 247.2105 0003239 321.9618 150.8096  1.00269867 56688
INTELSAT 905 (IS-905)   
1 27438U 02027A   17301.16299529 -.00000187  00000-0  00000-0 0  9997
2 27438   0.0099 229.9048 0002488 331.1472 229.8639  1.00271280 19742
EXPRESS-A4              
1 27441U 02029A   17301.60743751 -.00000242  00000-0  00000-0 0  9995
2 27441   6.2820  55.6512 0005861 105.4335 240.2871  1.00274225 56348
GALAXY 3C (G-3C)        
1 27445U 02030A   17300.16483457 -.00000155  00000-0  00000-0 0  9998
2 27445   0.0217 286.0442 0001211  49.1470  24.8371  1.00272607 14959
EUTELSAT 5 WEST A       
1 27460U 02035A   17300.91254891 -.00000045  00000-0  00000+0 0  9998
2 27460   0.0481   9.4969 0005266 209.8027 140.6967  1.00271268 56122
N-STAR C                
1 27461U 02035B   17301.52757571 -.00000309  00000-0  00000-0 0  9994
2 27461   4.8758  64.0397 0002351  85.2306 213.7507  1.00272994 56109
EUTELSAT 36 WEST A      
1 27508U 02040A   17300.99911839 -.00000249  00000-0  00000+0 0  9993
2 27508   0.0712  13.4001 0002932 281.1414  65.4628  1.00272034 55628
METEOSAT-8 (MSG-1)      
1 27509U 02040B   17301.15311616  .00000142  00000-0  00000+0 0  9991
2 27509   5.0689  57.7933 0000447 310.2453 125.0877  1.00270529 55624
INTELSAT 906 (IS-906)   
1 27513U 02041A   17301.59632674  .00000011  00000-0  00000-0 0  9991
2 27513   0.0160 246.8511 0002770 327.6410 101.4915  1.00272397 55410
KALPANA-1 (METSAT 1)    
1 27525U 02043A   17300.84618070 -.00000076  00000-0  00000-0 0  9999
2 27525   6.5665  54.3659 0014990 226.7694 133.0691  1.00271104 55438
HISPASAT 1D             
1 27528U 02044A   17301.28882951 -.00000219  00000-0  00000+0 0  9991
2 27528   0.0333   0.9719 0003663 235.5175 234.3427  1.00270738 55325
TDRS 10                 
1 27566U 02055A   17300.54454520  .00000079  00000-0  00000-0 0  9994
2 27566   5.2601  57.8019 0009996 212.0999 147.8026  1.00271331 54608
NSS-6                   
1 27603U 02057A   17301.59532132 -.00000272  00000-0  00000-0 0  9996
2 27603   0.0184 123.4723 0003132 110.9313 112.0275  1.00267944 54473
NIMIQ 2                 
1 27632U 02062A   17300.87461986 -.00000232  00000-0  00000-0 0  9998
2 27632   2.2587  81.2512 0000638  71.8811 288.2456  1.00270602 12587
INTELSAT 907 (IS-907)   
1 27683U 03007A   17300.97494375 -.00000205  00000-0  00000+0 0  9992
2 27683   0.0113 238.9801 0002868 327.5610 153.4789  1.00272836 53769
GALAXY 12 (G-12)        
1 27715U 03013B   17301.55809889  .00000056  00000-0  00000-0 0  9994
2 27715   0.0156 237.5435 0002669 338.0011 253.4755  1.00272636 20521
ASIASAT 4               
1 27718U 03014A   17301.49597920 -.00000363  00000-0  00000-0 0  9993
2 27718   0.0258 150.4818 0000315 289.7043 257.5162  1.00269825 53291
HELLAS-SAT 2            
1 27811U 03020A   17301.37549183  .00000149  00000-0  00000+0 0  9999
2 27811   0.0464 176.4711 0006515  41.0416 353.5952  1.00273111 52718
AMC-9 (GE-12)           
1 27820U 03024A   17301.36179706  .00000113  00000-0  00000-0 0  9994
2 27820   0.2595  89.6547 0012747 262.7154  27.8937  0.99707431 52754
THURAYA-2               
1 27825U 03026A   17300.83448686  .00000130  00000-0  00000+0 0  9996
2 27825   5.0366  29.6170 0004799 175.7357 175.4646  1.00274224 52715
OPTUS C1                
1 27831U 03028B   17301.51646519 -.00000150  00000-0  00000-0 0  9990
2 27831   0.0485 136.2232 0004249  70.2093 172.5781  1.00271472 21434
ECHOSTAR 12 (RAINBOW 1) 
1 27852U 03033A   17301.53312993 -.00000202  00000-0  00000-0 0  9995
2 27852   0.0429  67.3567 0001562 171.4218 263.8396  1.00274180 52369
GALAXY 23 (G-23)        
1 27854U 03034A   17301.13474949  .00000010  00000-0  00000-0 0  9990
2 27854   0.0186 141.2404 0002895  74.9459 108.0263  1.00272634 52115
EUTELSAT 33A            
1 27948U 03043A   17301.09632969  .00000151  00000-0  00000+0 0  9992
2 27948   2.6338  77.7752 0002654 238.4563 145.9653  1.00273318 51708
GALAXY 13 (HORIZONS-1)  
1 27954U 03044A   17301.15466030  .00000045  00000-0  00000-0 0  9994
2 27954   0.0424 106.2246 0002037 190.4137  28.7616  1.00272999 14955
ZHONGXING-20            
1 28082U 03052A   17301.34632552 -.00000326  00000-0  00000-0 0  9994
2 28082   3.7628  70.6330 0003974 186.8971   7.3243  1.00272820 51131
YAMAL 202               
1 28089U 03053A   17301.11368894  .00000116  00000-0  00000-0 0  9998
2 28089   0.0713  84.7582 0002858 153.6894 248.1629  1.00275834 51056
EXPRESS-AM22 (SESAT 2)  
1 28134U 03060A   17301.56438191 -.00000140  00000-0  00000-0 0  9992
2 28134   0.7255  90.7370 0000217 175.6191  54.0543  1.00272297 50652
AMC-10 (GE-10)          
1 28154U 04003A   17301.09501154  .00000085  00000-0  00000-0 0  9997
2 28154   0.0243 103.9248 0001465  60.2354 131.6984  1.00273368 50281
ABS-4 (MOBISAT-1)       
1 28184U 04007A   17301.53452325  .00000038  00000-0  00000-0 0  9996
2 28184   0.0135 269.5988 0002089 289.7140  91.1864  1.00272073 20701
EUTELSAT 7A             
1 28187U 04008A   17301.39007795  .00000045  00000-0  00000+0 0  9998
2 28187   0.0702  22.1115 0005593 187.9584 334.3040  1.00271359 49955
DIRECTV 7S              
1 28238U 04016A   17301.61933743 -.00000001  00000-0  00000-0 0  9994
2 28238   0.0319  34.7399 0003050 181.6413 284.6938  1.00271969 49452
AMC-11 (GE-11)          
1 28252U 04017A   17301.55809889  .00000067  00000-0  00000-0 0  9998
2 28252   0.0171  75.1788 0002773 152.5033 239.3203  1.00270011 49326
INTELSAT 10-02          
1 28358U 04022A   17301.22757880 -.00000013  00000-0  00000-0 0  9990
2 28358   0.0173 159.3134 0001229 147.0442 171.3844  1.00272821 49038
APSTAR 5 (TELSTAR 18)   
1 28364U 04024A   17301.52757571 -.00000296  00000-0  00000-0 0  9992
2 28364   0.0070 248.5205 0003222 334.6587 141.8273  1.00272606 48993
ANIK F2                 
1 28378U 04027A   17301.14493619 -.00000053  00000-0  00000-0 0  9999
2 28378   0.0532  75.3668 0000741 101.5144 160.9321  1.00271720  9666
AMC-15                  
1 28446U 04041A   17301.11359455 -.00000092  00000-0  00000-0 0  9990
2 28446   0.0374  52.4879 0002455 178.2002 101.8415  1.00271251 47764
AMC-16                  
1 28472U 04048A   17301.08923779 -.00000209  00000-0  00000+0 0  9997
2 28472   0.0396  75.0254 0002742 139.9914 128.7758  1.00272009 47186
NSS-10 (AMC-12)         
1 28526U 05003A   17301.23799366 -.00000253  00000-0  00000-0 0  9999
2 28526   0.0324  36.2768 0002737 174.0657 234.6904  1.00272128 21559
XTAR-EUR                
1 28542U 05005A   17300.81841549  .00000148  00000-0  00000+0 0  9994
2 28542   0.0420  75.2492 0002926 144.6561 140.1078  1.00271845 46553
